{
"type": "FeatureCollection",
"name": "champaign-county-food-banks",
"crs": { "type": "name", "properties": { "name": "urn:ogc:def:crs:OGC:1.3:CRS84" } },
"features": [
{ "type": "Feature", "properties": { "name": "Wesley Food Pantry", "category": "food_banks", "address": "1203 W Green St", "city": "Urbana", "zip": "61801", "state": "IL", "confidence": 0.99 }, "geometry": { "type": "Point", "coordinates": [ -88.22509449, 40.1102783 ] } },
{ "type": "Feature", "properties": { "name": "Eastern Illinois Foodbank", "category": "food_banks", "address": "2405 North Shore Dr", "city": "Urbana", "zip": "61802", "state": "IL", "confidence": 1.0 }, "geometry": { "type": "Point", "coordinates": [ -88.22240403, 40.13807271 ] } },
{ "type": "Feature", "properties": { "name": "Fisher Area Food Pantry", "category": "food_banks", "address": "100 School St", "city": "Fisher", "zip": "61843", "state": "IL", "confidence": 0.97 }, "geometry": { "type": "Point", "coordinates": [ -88.349051, 40.313616 ] } }
]
}
