{
"type": "FeatureCollection",
"name": "champaign-county-gambling-betting",
"crs": { "type": "name", "properties": { "name": "urn:ogc:def:crs:OGC:1.3:CRS84" } },
"features": [
{ "type": "Feature", "properties": { "name": "Silver Bullet Bar", "category": "adult_entertainment", "address": "1401 E Washington St", "city": "Urbana", "zip": "61802", "state": "IL", "confidence": 0.96 }, "geometry": { "type": "Point", "coordinates": [ -88.19261339, 40.1054883 ] } },
{ "type": "Feature", "properties": { "name": "Lovers Playground", "category": "adult_entertainment", "address": "33 E Springfield Ave", "city": "Champaign", "zip": "61820", "state": "IL", "confidence": 0.99 }, "geometry": { "type": "Point", "coordinates": [ -88.2405273, 40.11236018 ] } }
]
}
