{
"type": "FeatureCollection",
"name": "champaign-county-convenience_store",
"crs": { "type": "name", "properties": { "name": "urn:ogc:def:crs:OGC:1.3:CRS84" } },
"features": [
{ "type": "Feature", "properties": { "name": "Casey's", "category": "convenience_store", "address": "408 N Lincoln St", "city": "Philo", "zip": "61864", "state": "IL", "confidence": 1.0 }, "geometry": { "type": "Point", "coordinates": [ -88.16092668, 40.01089664 ] } },
{ "type": "Feature", "properties": { "name": "710 Mart", "category": "convenience_store", "address": "710 S Goodwin Ave", "city": "Urbana", "zip": "61801", "state": "IL", "confidence": 0.95 }, "geometry": { "type": "Point", "coordinates": [ -88.22373598, 40.10651818 ] } },
{ "type": "Feature", "properties": { "name": "Circle K", "category": "convenience_store", "address": "810 W Green", "city": "Urbana", "zip": "61801", "state": "IL", "confidence": 1.0 }, "geometry": { "type": "Point", "coordinates": [ -88.219052, 40.110851 ] } },
{ "type": "Feature", "properties": { "name": "Jack Flash", "category": "convenience_store", "address": "303 E Warren St", "city": "St Joseph", "zip": "61873", "state": "IL", "confidence": 0.99 }, "geometry": { "type": "Point", "coordinates": [ -88.04031106, 40.11280582 ] } },
{ "type": "Feature", "properties": { "name": "Circle K", "category": "convenience_store", "address": "609 E University", "city": "Champaign", "zip": "61820", "state": "IL", "confidence": 1.0 }, "geometry": { "type": "Point", "coordinates": [ -88.229761, 40.116056 ] } },
{ "type": "Feature", "properties": { "name": "Circle K", "category": "convenience_store", "address": "507 W University Ave", "city": "Urbana", "zip": "61801", "state": "IL", "confidence": 1.0 }, "geometry": { "type": "Point", "coordinates": [ -88.213173, 40.116262 ] } },
{ "type": "Feature", "properties": { "name": "Village Pantry", "category": "convenience_store", "address": "401 N Market St", "city": "Ogden", "zip": "61859", "state": "IL", "confidence": 0.92 }, "geometry": { "type": "Point", "coordinates": [ -87.95913674, 40.11699959 ] } },
{ "type": "Feature", "properties": { "name": "Circle K", "category": "convenience_store", "address": "1501 N Lincoln Ave", "city": "Urbana", "zip": "61801", "state": "IL", "confidence": 0.97 }, "geometry": { "type": "Point", "coordinates": [ -88.22020041, 40.12690855 ] } },
{ "type": "Feature", "properties": { "name": "Circle K", "category": "convenience_store", "address": "1809 N Cunningham Ave", "city": "Urbana", "zip": "61802", "state": "IL", "confidence": 1.0 }, "geometry": { "type": "Point", "coordinates": [ -88.198437, 40.130273 ] } },
{ "type": "Feature", "properties": { "name": "Circle K", "category": "convenience_store", "address": "2011 N Lincoln Ave", "city": "Urbana", "zip": "61801", "state": "IL", "confidence": 1.0 }, "geometry": { "type": "Point", "coordinates": [ -88.220274, 40.132032 ] } },
{ "type": "Feature", "properties": { "name": "CVS Pharmacy", "category": "convenience_store", "address": "1111 N Dunlap Ave", "city": "Savoy", "zip": "61874", "state": "IL", "confidence": 0.97 }, "geometry": { "type": "Point", "coordinates": [ -88.2499, 40.0685 ] } },
{ "type": "Feature", "properties": { "name": "Circle K", "category": "convenience_store", "address": "407-A N Dunlap Ave", "city": "Savoy", "zip": "61874", "state": "IL", "confidence": 1.0 }, "geometry": { "type": "Point", "coordinates": [ -88.249174, 40.069006 ] } },
{ "type": "Feature", "properties": { "name": "Thorntons", "category": "convenience_store", "address": "101 Burwash Ave", "city": "Savoy", "zip": "61874", "state": "IL", "confidence": 1.0 }, "geometry": { "type": "Point", "coordinates": [ -88.24910057, 40.07395993 ] } },
{ "type": "Feature", "properties": { "name": "Haymakers Convenience Store", "category": "convenience_store", "address": "202 Devonshire Dr", "city": "Champaign", "zip": "61820", "state": "IL", "confidence": 1.0 }, "geometry": { "type": "Point", "coordinates": [ -88.24771225, 40.09014964 ] } },
{ "type": "Feature", "properties": { "name": "Circle K", "category": "convenience_store", "address": "1301 S Neil St", "city": "Champaign", "zip": "61820", "state": "IL", "confidence": 1.0 }, "geometry": { "type": "Point", "coordinates": [ -88.24414, 40.102091 ] } },
{ "type": "Feature", "properties": { "name": "J6 Mart", "category": "convenience_store", "address": "516 E John St", "city": "Champaign", "zip": "61820", "state": "IL", "confidence": 0.96 }, "geometry": { "type": "Point", "coordinates": [ -88.23044009, 40.10920279 ] } },
{ "type": "Feature", "properties": { "name": "Circle K", "category": "convenience_store", "address": "59 E Green", "city": "Champaign", "zip": "61820", "state": "IL", "confidence": 1.0 }, "geometry": { "type": "Point", "coordinates": [ -88.239272, 40.110019 ] } },
{ "type": "Feature", "properties": { "name": "Circle K", "category": "convenience_store", "address": "1101 N Prospect Ave", "city": "Champaign", "zip": "61820", "state": "IL", "confidence": 0.98 }, "geometry": { "type": "Point", "coordinates": [ -88.2585, 40.126685 ] } },
{ "type": "Feature", "properties": { "name": "Golden Hour", "category": "convenience_store", "address": "301 Bloomington Rd", "city": "Champaign", "zip": "61820", "state": "IL", "confidence": 0.94 }, "geometry": { "type": "Point", "coordinates": [ -88.24779845, 40.1274921 ] } },
{ "type": "Feature", "properties": { "name": "Circle K", "category": "convenience_store", "address": "1503 N Neil", "city": "Champaign", "zip": "61820", "state": "IL", "confidence": 1.0 }, "geometry": { "type": "Point", "coordinates": [ -88.243912, 40.131129 ] } },
{ "type": "Feature", "properties": { "name": "Haymakers", "category": "convenience_store", "address": "3501 Fields South Dr", "city": "Champaign", "zip": "61822", "state": "IL", "confidence": 1.0 }, "geometry": { "type": "Point", "coordinates": [ -88.31044782, 40.07032629 ] } },
{ "type": "Feature", "properties": { "name": "Circle K", "category": "convenience_store", "address": "1301 S Mattis Ave", "city": "Champaign", "zip": "61821", "state": "IL", "confidence": 1.0 }, "geometry": { "type": "Point", "coordinates": [ -88.27691, 40.102182 ] } },
{ "type": "Feature", "properties": { "name": "Circle K", "category": "convenience_store", "address": "1713 W John St", "city": "Champaign", "zip": "61821", "state": "IL", "confidence": 1.0 }, "geometry": { "type": "Point", "coordinates": [ -88.276378, 40.108655 ] } },
{ "type": "Feature", "properties": { "name": "Circle K", "category": "convenience_store", "address": "1601 W Springfield Ave", "city": "Champaign", "zip": "61821", "state": "IL", "confidence": 1.0 }, "geometry": { "type": "Point", "coordinates": [ -88.272692, 40.112481 ] } },
{ "type": "Feature", "properties": { "name": "Circle K", "category": "convenience_store", "address": "2315 W Springfield Ave", "city": "Champaign", "zip": "61821", "state": "IL", "confidence": 1.0 }, "geometry": { "type": "Point", "coordinates": [ -88.285801, 40.112635 ] } },
{ "type": "Feature", "properties": { "name": "Circle K", "category": "convenience_store", "address": "4202 W Springfield Ave", "city": "Champaign", "zip": "61822", "state": "IL", "confidence": 1.0 }, "geometry": { "type": "Point", "coordinates": [ -88.315275, 40.113706 ] } },
{ "type": "Feature", "properties": { "name": "Thorntons", "category": "convenience_store", "address": "101 S Mattis Ave", "city": "Champaign", "zip": "61821", "state": "IL", "confidence": 0.97 }, "geometry": { "type": "Point", "coordinates": [ -88.27737553, 40.11606873 ] } },
{ "type": "Feature", "properties": { "name": "Mach 1", "category": "convenience_store", "address": "902 W Bloomington Rd", "city": "Champaign", "zip": "61821", "state": "IL", "confidence": 0.98 }, "geometry": { "type": "Point", "coordinates": [ -88.25898251, 40.13314227 ] } },
{ "type": "Feature", "properties": { "name": "Star Fox Liquor", "category": "convenience_store", "address": "1005 W Bloomington Rd", "city": "Champaign", "zip": "61821", "state": "IL", "confidence": 0.97 }, "geometry": { "type": "Point", "coordinates": [ -88.2608355, 40.13324535 ] } },
{ "type": "Feature", "properties": { "name": "Circle K", "category": "convenience_store", "address": "3604 N Mattis Ave", "city": "Champaign", "zip": "61822", "state": "IL", "confidence": 1.0 }, "geometry": { "type": "Point", "coordinates": [ -88.275846, 40.158635 ] } },
{ "type": "Feature", "properties": { "name": "Circle K", "category": "convenience_store", "address": "1511 N Prospect Ave", "city": "Champaign", "zip": "61820", "state": "IL", "confidence": 1.0 }, "geometry": { "type": "Point", "coordinates": [ -88.258437, 40.132067 ] } },
{ "type": "Feature", "properties": { "name": "QuikTrip", "category": "convenience_store", "address": "1505 N Neil St", "city": "Champaign", "zip": "61820", "state": "IL", "confidence": 1.0 }, "geometry": { "type": "Point", "coordinates": [ -88.24439285, 40.13222284 ] } },
{ "type": "Feature", "properties": { "name": "Hot Spot", "category": "convenience_store", "address": "1903 N Neil St", "city": "Champaign", "zip": "61820", "state": "IL", "confidence": 0.95 }, "geometry": { "type": "Point", "coordinates": [ -88.24447948, 40.1390488 ] } },
{ "type": "Feature", "properties": { "name": "Road Ranger", "category": "convenience_store", "address": "4910 Market St", "city": "Champaign", "zip": "61822", "state": "IL", "confidence": 0.99 }, "geometry": { "type": "Point", "coordinates": [ -88.24070852, 40.17771569 ] } },
{ "type": "Feature", "properties": { "name": "Circle K", "category": "convenience_store", "address": "506 S Prairie View Rd", "city": "Mahomet", "zip": "61853", "state": "IL", "confidence": 1.0 }, "geometry": { "type": "Point", "coordinates": [ -88.364757, 40.19181 ] } },
{ "type": "Feature", "properties": { "name": "Circle K", "category": "convenience_store", "address": "602 E Oak St", "city": "Mahomet", "zip": "61853", "state": "IL", "confidence": 1.0 }, "geometry": { "type": "Point", "coordinates": [ -88.401452, 40.192321 ] } },
{ "type": "Feature", "properties": { "name": "Circle K", "category": "convenience_store", "address": "602 E Oak St", "city": "Mahomet", "zip": "61853", "state": "IL", "confidence": 1.0 }, "geometry": { "type": "Point", "coordinates": [ -88.40169005, 40.19245769 ] } },
{ "type": "Feature", "properties": { "name": "Minit Mart", "category": "convenience_store", "address": "203 N Lombard St", "city": "Mahomet", "zip": "61853", "state": "IL", "confidence": 0.99 }, "geometry": { "type": "Point", "coordinates": [ -88.39995334, 40.19545898 ] } },
{ "type": "Feature", "properties": { "name": "Rantoul Food & Liquor Mart", "category": "convenience_store", "address": "515 S Maplewood Dr", "city": "Rantoul", "zip": "61866", "state": "IL", "confidence": 0.96 }, "geometry": { "type": "Point", "coordinates": [ -88.13621969, 40.30720639 ] } },
{ "type": "Feature", "properties": { "name": "Circle K", "category": "convenience_store", "address": "220 S Murray Rd", "city": "Rantoul", "zip": "61866", "state": "IL", "confidence": 1.0 }, "geometry": { "type": "Point", "coordinates": [ -88.174769, 40.308197 ] } },
{ "type": "Feature", "properties": { "name": "Circle K", "category": "convenience_store", "address": "1295 E Grove Ave", "city": "Rantoul", "zip": "61866", "state": "IL", "confidence": 1.0 }, "geometry": { "type": "Point", "coordinates": [ -88.136992, 40.31234 ] } }
]
}
