{
"type": "FeatureCollection",
"name": "champaign-county-banks",
"crs": { "type": "name", "properties": { "name": "urn:ogc:def:crs:OGC:1.3:CRS84" } },
"features": [
{ "type": "Feature", "properties": { "name": "Busey Bank", "category": "bank_credit_union", "address": "128 E Holden St", "city": "Tolono", "zip": "61880", "state": "IL", "confidence": 1.0 }, "geometry": { "type": "Point", "coordinates": [ -88.25916824, 39.98620511 ] } },
{ "type": "Feature", "properties": { "name": "Marine Bank", "category": "banks", "address": "2434 Village Green Pl", "city": "Champaign", "zip": "61822", "state": "IL", "confidence": 1.0 }, "geometry": { "type": "Point", "coordinates": [ -88.296057, 40.082775 ] } },
{ "type": "Feature", "properties": { "name": "Heartland Bank and Trust Company", "category": "bank_credit_union", "address": "1101 W Windsor Rd", "city": "Champaign", "zip": "61821", "state": "IL", "confidence": 0.95 }, "geometry": { "type": "Point", "coordinates": [ -88.2629961, 40.0832803 ] } },
{ "type": "Feature", "properties": { "name": "Busey Bank", "category": "bank_credit_union", "address": "3002 Windsor Rd", "city": "Champaign", "zip": "61822", "state": "IL", "confidence": 1.0 }, "geometry": { "type": "Point", "coordinates": [ -88.29561992, 40.0844286 ] } },
{ "type": "Feature", "properties": { "name": "Busey Bank", "category": "bank_credit_union", "address": "909 W Kirby Ave", "city": "Champaign", "zip": "61821", "state": "IL", "confidence": 1.0 }, "geometry": { "type": "Point", "coordinates": [ -88.25914492, 40.09761552 ] } },
{ "type": "Feature", "properties": { "name": "CIBM Bank", "category": "bank_credit_union", "address": "2913 W Kirby Ave", "city": "Champaign", "zip": "61821", "state": "IL", "confidence": 1.0 }, "geometry": { "type": "Point", "coordinates": [ -88.29460564, 40.09809238 ] } },
{ "type": "Feature", "properties": { "name": "Midland States Bank ATM", "category": "bank_credit_union", "address": "1617 W. Springfield Ave", "city": "Champaign", "zip": "61821", "state": "IL", "confidence": 0.95 }, "geometry": { "type": "Point", "coordinates": [ -88.2746905, 40.1123201 ] } },
{ "type": "Feature", "properties": { "name": "Busey Bank", "category": "bank_credit_union", "address": "2011 W Springfield Ave", "city": "Champaign", "zip": "61821", "state": "IL", "confidence": 1.0 }, "geometry": { "type": "Point", "coordinates": [ -88.2826666, 40.11232016 ] } },
{ "type": "Feature", "properties": { "name": "Heartland Bank and Trust Company", "category": "bank_credit_union", "address": "2101 W Springfield Ave", "city": "Champaign", "zip": "61821", "state": "IL", "confidence": 0.95 }, "geometry": { "type": "Point", "coordinates": [ -88.283303081989288, 40.112476370440795 ] } },
{ "type": "Feature", "properties": { "name": "Chase Bank", "category": "bank_credit_union", "address": "301 S Mattis Ave", "city": "Champaign", "zip": "61821", "state": "IL", "confidence": 1.0 }, "geometry": { "type": "Point", "coordinates": [ -88.27726496, 40.11442081 ] } },
{ "type": "Feature", "properties": { "name": "Philo Exchange Bank", "category": "bank_credit_union", "address": "102 W Washington St", "city": "Philo", "zip": "61864", "state": "IL", "confidence": 0.98 }, "geometry": { "type": "Point", "coordinates": [ -88.15814118, 40.00709664 ] } },
{ "type": "Feature", "properties": { "name": "Longview Bank", "category": "banks", "address": "414 W Main St", "city": "Sidney", "zip": "61877", "state": "IL", "confidence": 0.98 }, "geometry": { "type": "Point", "coordinates": [ -88.07983286, 40.02609038 ] } },
{ "type": "Feature", "properties": { "name": "Prospect Bank", "category": "banks", "address": "134 S Main St", "city": "Homer", "zip": "61849", "state": "IL", "confidence": 1.0 }, "geometry": { "type": "Point", "coordinates": [ -87.95816067, 40.03522936 ] } },
{ "type": "Feature", "properties": { "name": "Busey Bank", "category": "bank_credit_union", "address": "2710 S Philo Rd", "city": "Urbana", "zip": "61802", "state": "IL", "confidence": 1.0 }, "geometry": { "type": "Point", "coordinates": [ -88.18968784, 40.08331032 ] } },
{ "type": "Feature", "properties": { "name": "First Financial Bank", "category": "banks", "address": "2510 S Philo Rd", "city": "Urbana", "zip": "61802", "state": "IL", "confidence": 1.0 }, "geometry": { "type": "Point", "coordinates": [ -88.19027228, 40.08575161 ] } },
{ "type": "Feature", "properties": { "name": "First Mid Bank & Trust", "category": "bank_credit_union", "address": "601 S Vine St", "city": "Urbana", "zip": "61801", "state": "IL", "confidence": 0.98 }, "geometry": { "type": "Point", "coordinates": [ -88.20515959, 40.1082146 ] } },
{ "type": "Feature", "properties": { "name": "Heartland Bank and Trust Company", "category": "bank_credit_union", "address": "602 S Vine St", "city": "Urbana", "zip": "61801", "state": "IL", "confidence": 0.95 }, "geometry": { "type": "Point", "coordinates": [ -88.204585611820164, 40.108248503924095 ] } },
{ "type": "Feature", "properties": { "name": "Woodforest National Bank", "category": "banks", "address": "100 S High Cross Rd", "city": "Urbana", "zip": "61802", "state": "IL", "confidence": 0.91 }, "geometry": { "type": "Point", "coordinates": [ -88.15934863, 40.11165237 ] } },
{ "type": "Feature", "properties": { "name": "Busey", "category": "bank_credit_union", "address": "104 N Main St", "city": "Saint Joseph", "zip": "61873", "state": "IL", "confidence": 0.95 }, "geometry": { "type": "Point", "coordinates": [ -88.041701, 40.1118265 ] } },
{ "type": "Feature", "properties": { "name": "Busey Bank", "category": "bank_credit_union", "address": "201 W Main St", "city": "Urbana", "zip": "61801", "state": "IL", "confidence": 1.0 }, "geometry": { "type": "Point", "coordinates": [ -88.20929755, 40.11219438 ] } },
{ "type": "Feature", "properties": { "name": "First Mid Bank & Trust", "category": "bank_credit_union", "address": "1251 Woodfield Dr", "city": "Savoy", "zip": "61874", "state": "IL", "confidence": 0.95 }, "geometry": { "type": "Point", "coordinates": [ -88.25048403, 40.06996382 ] } },
{ "type": "Feature", "properties": { "name": "Charles Schwab", "category": "bank_credit_union", "address": "2219 S Neil St", "city": "Champaign", "zip": "61820", "state": "IL", "confidence": 0.95 }, "geometry": { "type": "Point", "coordinates": [ -88.24809384, 40.08697519 ] } },
{ "type": "Feature", "properties": { "name": "BankChampaign, NA", "category": "bank_credit_union", "address": "2101 S Neil St", "city": "Champaign", "zip": "61820", "state": "IL", "confidence": 1.0 }, "geometry": { "type": "Point", "coordinates": [ -88.24649874, 40.08936551 ] } },
{ "type": "Feature", "properties": { "name": "First Financial Bank", "category": "bank_credit_union", "address": "1611 S Prospect Ave", "city": "Champaign", "zip": "61820", "state": "IL", "confidence": 0.95 }, "geometry": { "type": "Point", "coordinates": [ -88.2579912, 40.0971021 ] } },
{ "type": "Feature", "properties": { "name": "Prospect Bank", "category": "bank_credit_union", "address": "1601 S Prospect Ave", "city": "Champaign", "zip": "61820", "state": "IL", "confidence": 0.95 }, "geometry": { "type": "Point", "coordinates": [ -88.257796, 40.097907 ] } },
{ "type": "Feature", "properties": { "name": "First Federal Savings Bank of Champaign Urbana", "category": "bank_credit_union", "address": "1311 S Neil St", "city": "Champaign", "zip": "61820", "state": "IL", "confidence": 1.0 }, "geometry": { "type": "Point", "coordinates": [ -88.24463951, 40.10049108 ] } },
{ "type": "Feature", "properties": { "name": "First Financial Bank", "category": "banks", "address": "1205 S Neil St", "city": "Champaign", "zip": "61820", "state": "IL", "confidence": 1.0 }, "geometry": { "type": "Point", "coordinates": [ -88.24442971, 40.10298844 ] } },
{ "type": "Feature", "properties": { "name": "Marine Bank", "category": "banks", "address": "1001 S Neil St", "city": "Champaign", "zip": "61820", "state": "IL", "confidence": 0.99 }, "geometry": { "type": "Point", "coordinates": [ -88.24373, 40.104814 ] } },
{ "type": "Feature", "properties": { "name": "PNC Bank", "category": "bank_credit_union", "address": "809 S Wright St", "city": "Champaign", "zip": "61820", "state": "IL", "confidence": 1.0 }, "geometry": { "type": "Point", "coordinates": [ -88.22903636, 40.10816002 ] } },
{ "type": "Feature", "properties": { "name": "Old National Bank", "category": "bank_credit_union", "address": "812 W Springfield Ave", "city": "Champaign", "zip": "61820", "state": "IL", "confidence": 0.97 }, "geometry": { "type": "Point", "coordinates": [ -88.257462, 40.113077 ] } },
{ "type": "Feature", "properties": { "name": "PNC Bank", "category": "banks", "address": "302 S 1st St", "city": "Champaign", "zip": "61820", "state": "IL", "confidence": 1.0 }, "geometry": { "type": "Point", "coordinates": [ -88.23857596, 40.11403148 ] } },
{ "type": "Feature", "properties": { "name": "Chase", "category": "bank_credit_union", "address": "201 W University Ave", "city": "Champaign", "zip": "61820", "state": "IL", "confidence": 0.99 }, "geometry": { "type": "Point", "coordinates": [ -88.2457343, 40.11568718 ] } },
{ "type": "Feature", "properties": { "name": "Chase Bank", "category": "bank_credit_union", "address": "201 W University Ave", "city": "Champaign", "zip": "61820", "state": "IL", "confidence": 0.97 }, "geometry": { "type": "Point", "coordinates": [ -88.245719, 40.116051 ] } },
{ "type": "Feature", "properties": { "name": "Busey Bank", "category": "bank_credit_union", "address": "100 W University Ave", "city": "Champaign", "zip": "61820", "state": "IL", "confidence": 1.0 }, "geometry": { "type": "Point", "coordinates": [ -88.2448929, 40.11660259 ] } },
{ "type": "Feature", "properties": { "name": "Hickory Point Bank and Trust", "category": "banks", "address": "202 W Park Ave", "city": "Champaign", "zip": "61820", "state": "IL", "confidence": 0.99 }, "geometry": { "type": "Point", "coordinates": [ -88.24530751, 40.11751092 ] } },
{ "type": "Feature", "properties": { "name": "First Mid Bank & Trust", "category": "bank_credit_union", "address": "114 W Church St", "city": "Champaign", "zip": "61820", "state": "IL", "confidence": 0.95 }, "geometry": { "type": "Point", "coordinates": [ -88.24425359, 40.11836468 ] } },
{ "type": "Feature", "properties": { "name": "Woodforest National Bank", "category": "banks", "address": "2610 N Prospect Ave", "city": "Champaign", "zip": "61822", "state": "IL", "confidence": 0.93 }, "geometry": { "type": "Point", "coordinates": [ -88.25521578, 40.14684255 ] } },
{ "type": "Feature", "properties": { "name": "Longview Bank", "category": "bank_credit_union", "address": "102 S East Ave", "city": "Ogden", "zip": "61859", "state": "IL", "confidence": 0.98 }, "geometry": { "type": "Point", "coordinates": [ -87.95676396, 40.11437877 ] } },
{ "type": "Feature", "properties": { "name": "Longview Bank", "category": "bank_credit_union", "address": "220 E Grand Ave", "city": "Saint Joseph", "zip": "61873", "state": "IL", "confidence": 0.95 }, "geometry": { "type": "Point", "coordinates": [ -88.0412003, 40.1175269 ] } },
{ "type": "Feature", "properties": { "name": "Gifford State Bank", "category": "bank_credit_union", "address": "304 S Main St", "city": "Gifford", "zip": "61847", "state": "IL", "confidence": 0.99 }, "geometry": { "type": "Point", "coordinates": [ -88.02176002, 40.30550675 ] } },
{ "type": "Feature", "properties": { "name": "Bank of Rantoul", "category": "bank_credit_union", "address": "201 E Champaign Ave", "city": "Rantoul", "zip": "61866", "state": "IL", "confidence": 0.9 }, "geometry": { "type": "Point", "coordinates": [ -88.15702355, 40.30831541 ] } },
{ "type": "Feature", "properties": { "name": "First Mid Bank & Trust", "category": "bank_credit_union", "address": "1500 E Grove Ave", "city": "Rantoul", "zip": "61866", "state": "IL", "confidence": 0.95 }, "geometry": { "type": "Point", "coordinates": [ -88.13305765, 40.31163279 ] } },
{ "type": "Feature", "properties": { "name": "Busey Bank", "category": "banks", "address": "1231 E Grove Ave", "city": "Rantoul", "zip": "61866", "state": "IL", "confidence": 1.0 }, "geometry": { "type": "Point", "coordinates": [ -88.138462, 40.312481 ] } },
{ "type": "Feature", "properties": { "name": "First State Bank Of Forrest", "category": "bank_credit_union", "address": "1004 Purnell Dr", "city": "Mahomet", "zip": "61853", "state": "IL", "confidence": 0.97 }, "geometry": { "type": "Point", "coordinates": [ -88.36854839, 40.1861947 ] } },
{ "type": "Feature", "properties": { "name": "Fisher National Bank", "category": "bank_credit_union", "address": "1501 E Oak St", "city": "Mahomet", "zip": "61853", "state": "IL", "confidence": 1.0 }, "geometry": { "type": "Point", "coordinates": [ -88.38160187, 40.18655792 ] } },
{ "type": "Feature", "properties": { "name": "First Mid Bank & Trust", "category": "bank_credit_union", "address": "502 E Oak St", "city": "Mahomet", "zip": "61853", "state": "IL", "confidence": 0.95 }, "geometry": { "type": "Point", "coordinates": [ -88.40264216, 40.19214784 ] } },
{ "type": "Feature", "properties": { "name": "Busey Bank", "category": "bank_credit_union", "address": "312 E Main St", "city": "Mahomet", "zip": "61853", "state": "IL", "confidence": 1.0 }, "geometry": { "type": "Point", "coordinates": [ -88.40409004, 40.19545686 ] } },
{ "type": "Feature", "properties": { "name": "First Financial Bank", "category": "bank_credit_union", "address": "202 Eastwood Dr", "city": "Mahomet", "zip": "61853", "state": "IL", "confidence": 0.99 }, "geometry": { "type": "Point", "coordinates": [ -88.39561264, 40.1963316 ] } },
{ "type": "Feature", "properties": { "name": "Dewey Bank", "category": "banks", "address": "2994 County Road 900 E", "city": "Dewey", "zip": "61840", "state": "IL", "confidence": 1.0 }, "geometry": { "type": "Point", "coordinates": [ -88.28906874, 40.31056777 ] } },
{ "type": "Feature", "properties": { "name": "Fisher National Bank", "category": "banks", "address": "102 E Division St", "city": "Fisher", "zip": "61843", "state": "IL", "confidence": 1.0 }, "geometry": { "type": "Point", "coordinates": [ -88.34936813, 40.31098307 ] } }
]
}
