{
"type": "FeatureCollection",
"name": "champaign-county-liquor-stores",
"crs": { "type": "name", "properties": { "name": "urn:ogc:def:crs:OGC:1.3:CRS84" } },
"features": [
{ "type": "Feature", "properties": { "name": "Piccadilly Beverage Shop", "category": "liquor_store", "address": "2202 W John St", "city": "Champaign", "zip": "61821", "state": "IL", "confidence": 1.0 }, "geometry": { "type": "Point", "coordinates": [ -88.28296821, 40.10951992 ] } },
{ "type": "Feature", "properties": { "name": "Liquor Land", "category": "liquor_store", "address": "32 E Green St", "city": "Champaign", "zip": "61820", "state": "IL", "confidence": 0.98 }, "geometry": { "type": "Point", "coordinates": [ -88.24044924, 40.11032665 ] } },
{ "type": "Feature", "properties": { "name": "Hollywood Liquors", "category": "liquor_store", "address": "512 S Neil St", "city": "Champaign", "zip": "61820", "state": "IL", "confidence": 1.0 }, "geometry": { "type": "Point", "coordinates": [ -88.24308552, 40.11047265 ] } },
{ "type": "Feature", "properties": { "name": "Hollywood Liquors", "category": "liquor_store", "address": "1101 N Mattis Ave", "city": "Champaign", "zip": "61821", "state": "IL", "confidence": 0.92 }, "geometry": { "type": "Point", "coordinates": [ -88.27759071, 40.12708784 ] } },
{ "type": "Feature", "properties": { "name": "Binny's Beverage Depot", "category": "liquor_store", "address": "802 W Town Center Blvd", "city": "Champaign", "zip": "61822", "state": "IL", "confidence": 1.0 }, "geometry": { "type": "Point", "coordinates": [ -88.25686091, 40.14348395 ] } },
{ "type": "Feature", "properties": { "name": "A1 Liquor", "category": "liquor_store", "address": "1804 Patton Dr", "city": "Mahomet", "zip": "61853", "state": "IL", "confidence": 0.99 }, "geometry": { "type": "Point", "coordinates": [ -88.37374564, 40.1852494 ] } },
{ "type": "Feature", "properties": { "name": "AJ's Wine & Spirits", "category": "liquor_store", "address": "604 E Main St", "city": "Mahomet", "zip": "61853", "state": "IL", "confidence": 0.99 }, "geometry": { "type": "Point", "coordinates": [ -88.40106452, 40.19469243 ] } },
{ "type": "Feature", "properties": { "name": "Campus Pantry", "category": "liquor_store", "address": "112 E Green St", "city": "Champaign", "zip": "61820", "state": "IL", "confidence": 1.0 }, "geometry": { "type": "Point", "coordinates": [ -88.23726211, 40.11034313 ] } },
{ "type": "Feature", "properties": { "name": "Piccadilly Liquors", "category": "liquor_store", "address": "601 S 1st St", "city": "Champaign", "zip": "61820", "state": "IL", "confidence": 0.99 }, "geometry": { "type": "Point", "coordinates": [ -88.23879316, 40.11124136 ] } },
{ "type": "Feature", "properties": { "name": "B Spirits", "category": "liquor_store", "address": "306 W Main St", "city": "Urbana", "zip": "61801", "state": "IL", "confidence": 0.95 }, "geometry": { "type": "Point", "coordinates": [ -88.210798, 40.11304 ] } },
{ "type": "Feature", "properties": { "name": "Analog Wine Library", "category": "liquor_store", "address": "129 N Race St", "city": "Urbana", "zip": "61801", "state": "IL", "confidence": 0.96 }, "geometry": { "type": "Point", "coordinates": [ -88.20909001, 40.11351407 ] } },
{ "type": "Feature", "properties": { "name": "Super Lucky Star Food & Liquor", "category": "liquor_store", "address": "2108 E University Ave", "city": "Urbana", "zip": "61802", "state": "IL", "confidence": 0.99 }, "geometry": { "type": "Point", "coordinates": [ -88.18128213, 40.11485832 ] } },
{ "type": "Feature", "properties": { "name": "Champaign Food and Liquor", "category": "liquor_store", "address": "517 E University Ave", "city": "Champaign", "zip": "61820", "state": "IL", "confidence": 0.93 }, "geometry": { "type": "Point", "coordinates": [ -88.23086586, 40.11620714 ] } },
{ "type": "Feature", "properties": { "name": "Liquor Locker", "category": "liquor_store", "address": "820 E Champaign Ave", "city": "Rantoul", "zip": "61866", "state": "IL", "confidence": 0.94 }, "geometry": { "type": "Point", "coordinates": [ -88.14661417, 40.30807677 ] } }
]
}
